CCSDS_OMM_VERS = 2.0
CREATION_DATE  = 
ORIGINATOR     = 

OBJECT_NAME    = STARLINK-36889
OBJECT_ID      = 2026-039W
CENTER_NAME    = EARTH
REF_FRAME      = TEME
TIME_SYSTEM    = UTC
MEAN_ELEMENT_THEORY = SGP/SGP4

EPOCH          = 2026-03-06T06:00:02.000160
MEAN_MOTION    = 15.97115209
ECCENTRICITY   = .0001479
INCLINATION    = 42.9977
RA_OF_ASC_NODE = 76.1355
ARG_OF_PERICENTER = 273.4809
MEAN_ANOMALY   = 271.3597

EPHEMERIS_TYPE = 0
CLASSIFICATION_TYPE = U
NORAD_CAT_ID   = 68006
ELEMENT_SET_NO = 999
REV_AT_EPOCH   = 232
BSTAR          = -.32249733E-2
MEAN_MOTION_DOT = -.1455514E-1
MEAN_MOTION_DDOT = .63193773E-3

CCSDS_OMM_VERS = 2.0
CREATION_DATE  = 
ORIGINATOR     = 

OBJECT_NAME    = STARLINK-36592
OBJECT_ID      = 2026-039X
CENTER_NAME    = EARTH
REF_FRAME      = TEME
TIME_SYSTEM    = UTC
MEAN_ELEMENT_THEORY = SGP/SGP4

EPOCH          = 2026-03-06T06:00:02.000160
MEAN_MOTION    = 15.97249175
ECCENTRICITY   = .00015315
INCLINATION    = 42.9977
RA_OF_ASC_NODE = 76.1314
ARG_OF_PERICENTER = 267.6539
MEAN_ANOMALY   = 279.0257

EPHEMERIS_TYPE = 0
CLASSIFICATION_TYPE = U
NORAD_CAT_ID   = 68007
ELEMENT_SET_NO = 999
REV_AT_EPOCH   = 232
BSTAR          = -.32020352E-2
MEAN_MOTION_DOT = -.145593E-1
MEAN_MOTION_DDOT = .63314835E-3

CCSDS_OMM_VERS = 2.0
CREATION_DATE  = 
ORIGINATOR     = 

OBJECT_NAME    = STARLINK-36911
OBJECT_ID      = 2026-039Y
CENTER_NAME    = EARTH
REF_FRAME      = TEME
TIME_SYSTEM    = UTC
MEAN_ELEMENT_THEORY = SGP/SGP4

EPOCH          = 2026-03-06T06:00:02.000160
MEAN_MOTION    = 15.97379282
ECCENTRICITY   = .00015704
INCLINATION    = 42.9978
RA_OF_ASC_NODE = 76.1264
ARG_OF_PERICENTER = 267.0553
MEAN_ANOMALY   = 281.5881

EPHEMERIS_TYPE = 0
CLASSIFICATION_TYPE = U
NORAD_CAT_ID   = 68008
ELEMENT_SET_NO = 999
REV_AT_EPOCH   = 232
BSTAR          = -.31608141E-2
MEAN_MOTION_DOT = -.1447708E-1
MEAN_MOTION_DDOT = .62744512E-3

CCSDS_OMM_VERS = 2.0
CREATION_DATE  = 
ORIGINATOR     = 

OBJECT_NAME    = STARLINK-36956
OBJECT_ID      = 2026-039Z
CENTER_NAME    = EARTH
REF_FRAME      = TEME
TIME_SYSTEM    = UTC
MEAN_ELEMENT_THEORY = SGP/SGP4

EPOCH          = 2026-03-06T06:00:02.000160
MEAN_MOTION    = 15.97507948
ECCENTRICITY   = .00014235
INCLINATION    = 42.9975
RA_OF_ASC_NODE = 76.1215
ARG_OF_PERICENTER = 275.2546
MEAN_ANOMALY   = 275.2460

EPHEMERIS_TYPE = 0
CLASSIFICATION_TYPE = U
NORAD_CAT_ID   = 68009
ELEMENT_SET_NO = 999
REV_AT_EPOCH   = 232
BSTAR          = -.31238731E-2
MEAN_MOTION_DOT = -.1441099E-1
MEAN_MOTION_DDOT = .62302785E-3

CCSDS_OMM_VERS = 2.0
CREATION_DATE  = 
ORIGINATOR     = 

OBJECT_NAME    = STARLINK-36953
OBJECT_ID      = 2026-039AA
CENTER_NAME    = EARTH
REF_FRAME      = TEME
TIME_SYSTEM    = UTC
MEAN_ELEMENT_THEORY = SGP/SGP4

EPOCH          = 2026-03-06T06:00:02.000160
MEAN_MOTION    = 15.97787095
ECCENTRICITY   = .00016107
INCLINATION    = 42.9975
RA_OF_ASC_NODE = 76.1109
ARG_OF_PERICENTER = 266.6188
MEAN_ANOMALY   = 287.9572

EPHEMERIS_TYPE = 0
CLASSIFICATION_TYPE = U
NORAD_CAT_ID   = 68010
ELEMENT_SET_NO = 999
REV_AT_EPOCH   = 232
BSTAR          = -.30952218E-2
MEAN_MOTION_DOT = -.1450188E-1
MEAN_MOTION_DDOT = .63209928E-3

CCSDS_OMM_VERS = 2.0
CREATION_DATE  = 
ORIGINATOR     = 

OBJECT_NAME    = STARLINK-36991
OBJECT_ID      = 2026-039AB
CENTER_NAME    = EARTH
REF_FRAME      = TEME
TIME_SYSTEM    = UTC
MEAN_ELEMENT_THEORY = SGP/SGP4

EPOCH          = 2026-03-06T06:00:02.000160
MEAN_MOTION    = 15.97917699
ECCENTRICITY   = .00015348
INCLINATION    = 42.9975
RA_OF_ASC_NODE = 76.1060
ARG_OF_PERICENTER = 267.7938
MEAN_ANOMALY   = 288.7781

EPHEMERIS_TYPE = 0
CLASSIFICATION_TYPE = U
NORAD_CAT_ID   = 68011
ELEMENT_SET_NO = 999
REV_AT_EPOCH   = 232
BSTAR          = -.30507357E-2
MEAN_MOTION_DOT = -.1439916E-1
MEAN_MOTION_DDOT = .62475501E-3

CCSDS_OMM_VERS = 2.0
CREATION_DATE  = 
ORIGINATOR     = 

OBJECT_NAME    = STARLINK-36936
OBJECT_ID      = 2026-039AC
CENTER_NAME    = EARTH
REF_FRAME      = TEME
TIME_SYSTEM    = UTC
MEAN_ELEMENT_THEORY = SGP/SGP4

EPOCH          = 2026-03-06T06:00:02.000160
MEAN_MOTION    = 15.98191581
ECCENTRICITY   = .00015854
INCLINATION    = 42.9975
RA_OF_ASC_NODE = 76.0957
ARG_OF_PERICENTER = 270.5751
MEAN_ANOMALY   = 289.8959

EPHEMERIS_TYPE = 0
CLASSIFICATION_TYPE = U
NORAD_CAT_ID   = 68012
ELEMENT_SET_NO = 999
REV_AT_EPOCH   = 232
BSTAR          = -.30110567E-2
MEAN_MOTION_DOT = -.1443118E-1
MEAN_MOTION_DDOT = .62911166E-3

CCSDS_OMM_VERS = 2.0
CREATION_DATE  = 
ORIGINATOR     = 

OBJECT_NAME    = STARLINK-36967
OBJECT_ID      = 2026-039AD
CENTER_NAME    = EARTH
REF_FRAME      = TEME
TIME_SYSTEM    = UTC
MEAN_ELEMENT_THEORY = SGP/SGP4

EPOCH          = 2026-03-06T06:00:02.000160
MEAN_MOTION    = 15.97644918
ECCENTRICITY   = .00015455
INCLINATION    = 42.9975
RA_OF_ASC_NODE = 76.1159
ARG_OF_PERICENTER = 270.8717
MEAN_ANOMALY   = 281.5988

EPHEMERIS_TYPE = 0
CLASSIFICATION_TYPE = U
NORAD_CAT_ID   = 68013
ELEMENT_SET_NO = 999
REV_AT_EPOCH   = 232
BSTAR          = -.3106675E-2
MEAN_MOTION_DOT = -.1444122E-1
MEAN_MOTION_DDOT = .62632267E-3

CCSDS_OMM_VERS = 2.0
CREATION_DATE  = 
ORIGINATOR     = 

OBJECT_NAME    = STARLINK-36985
OBJECT_ID      = 2026-039AE
CENTER_NAME    = EARTH
REF_FRAME      = TEME
TIME_SYSTEM    = UTC
MEAN_ELEMENT_THEORY = SGP/SGP4

EPOCH          = 2026-03-06T06:00:02.000160
MEAN_MOTION    = 15.98053375
ECCENTRICITY   = .00015963
INCLINATION    = 42.9975
RA_OF_ASC_NODE = 76.1011
ARG_OF_PERICENTER = 270.0339
MEAN_ANOMALY   = 288.4182

EPHEMERIS_TYPE = 0
CLASSIFICATION_TYPE = U
NORAD_CAT_ID   = 68014
ELEMENT_SET_NO = 999
REV_AT_EPOCH   = 232
BSTAR          = -.30375986E-2
MEAN_MOTION_DOT = -.1444593E-1
MEAN_MOTION_DDOT = .62937978E-3

